     2.100          NAVIGATION                              RINEX VERSION / TYPE
fic2rin                                 10/19/2010 00:12:29 PGM / RUN BY / DATE
                                                            END OF HEADER
11 10 10 18 12  0  0.0 -.973776914179D-04 -.272848410532D-11  .000000000000D+00
     .650000000000D+02  .293750000000D+02  .587810198940D-08 -.253117581132D+01
     .147894024849D-05  .112665902125D-01  .101141631603D-04  .515347806549D+04
     .129600000000D+06  .502914190292D-07  .277804411349D+01 -.689178705215D-07
     .888570068876D+00  .144468750000D+03  .865854178302D+00 -.849856828520D-08
     .170007081477D-09  .100000000000D+01  .160600000000D+04  .000000000000D+00
     .240000000000D+01  .000000000000D+00 -.116415321827D-07  .650000000000D+02
     .122406000000D+06  .400000000000D+01
12 10 10 18 12  0  0.0 -.623464584351D-04  .363797880709D-11  .000000000000D+00
     .960000000000D+02 -.625000000000D+01  .468162357984D-08 -.239741098993D+01
    -.379979610443D-06  .330384890549D-02  .420771539211D-05  .515358147621D+04
     .129600000000D+06 -.132247805595D-06  .937634553568D+00  .204890966415D-07
     .972251105704D+00  .303375000000D+03 -.323176565418D+00 -.824748639806D-08
     .250010413937D-11  .100000000000D+01  .160600000000D+04  .000000000000D+00
     .240000000000D+01  .000000000000D+00 -.116415321827D-07  .960000000000D+02
     .122406000000D+06  .400000000000D+01
13 10 10 18 12  0  0.0  .294567551464D-03 -.102318153949D-11  .000000000000D+00
     .780000000000D+02 -.291250000000D+02  .373408411102D-08  .323548266570D-01
    -.178627669811D-05  .429093022831D-02  .921078026295D-05  .515369370079D+04
     .129600000000D+06 -.335276126862D-07 -.109451567061D+01 -.242143869400D-07
     .991584344931D+00  .217687500000D+03  .180993805157D+01 -.773996525776D-08
    -.198936857947D-09  .100000000000D+01  .160600000000D+04  .000000000000D+00
     .240000000000D+01  .000000000000D+00 -.107102096081D-07  .780000000000D+02
     .122406000000D+06  .400000000000D+01
14 10 10 18 12  0  0.0  .991071574390D-04  .352429196937D-11  .000000000000D+00
     .210000000000D+02 -.407187500000D+02  .395552190622D-08 -.121541881907D-01
    -.215508043766D-05  .572697329335D-02  .923126935959D-05  .515358390617D+04
     .129600000000D+06 -.633299350739D-07 -.111725585293D+01  .115483999252D-06
     .984742753986D+00  .218093750000D+03 -.210877396425D+01 -.783782647693D-08
    -.189650756858D-09  .100000000000D+01  .160600000000D+04  .000000000000D+00
     .240000000000D+01  .000000000000D+00 -.884756445885D-08  .210000000000D+02
     .122406000000D+06  .400000000000D+01
15 10 10 18 12  0  0.0 -.194409862161D-03  .488853402203D-11  .000000000000D+00
     .220000000000D+02 -.500937500000D+02  .463519307440D-08 -.167297108390D+00
    -.256858766079D-05  .286392250564D-02  .896118581295D-05  .515383457947D+04
     .129600000000D+06  .540167093277D-07 -.118594420747D+01 -.540167093277D-07
     .952131602137D+00  .199375000000D+03 -.213471229762D+00 -.821284209784D-08
    -.280725979078D-09  .100000000000D+01  .160600000000D+04  .000000000000D+00
     .240000000000D+01  .000000000000D+00 -.977888703346D-08  .220000000000D+02
     .122406000000D+06  .400000000000D+01
17 10 10 18 12  0  0.0  .174580141902D-03  .125055521494D-11  .000000000000D+00
     .370000000000D+02 -.522500000000D+02  .456054710795D-08  .520934542352D+00
    -.266358256340D-05  .565666577313D-02  .977702438831D-05  .515367533493D+04
     .129600000000D+06  .111758708954D-07  .199863827759D+01  .856816768646D-07
     .960390276476D+00  .190875000000D+03 -.251220826065D+01 -.814676791701D-08
    -.423946230491D-09  .100000000000D+01  .160600000000D+04  .000000000000D+00
     .240000000000D+01  .000000000000D+00 -.102445483208D-07  .370000000000D+02
     .122406000000D+06  .400000000000D+01
18 10 10 18 12  0  0.0  .995304435492D-04  .216004991671D-11  .000000000000D+00
     .000000000000D+00  .137812500000D+02  .534772275412D-08  .186111917684D+01
     .609084963799D-06  .118513987400D-01  .405311584473D-05  .515373118591D+04
     .129600000000D+06 -.247731804848D-06 -.219620184734D+01 -.117346644402D-06
     .935487298504D+00  .288031250000D+03 -.228705547203D+01 -.865678916144D-08
     .714315468392D-12  .100000000000D+01  .160600000000D+04  .000000000000D+00
     .240000000000D+01  .000000000000D+00 -.107102096081D-07  .000000000000D+00
     .122406000000D+06  .400000000000D+01
19 10 10 18 12  0  0.0 -.752941705287D-04 -.329691829393D-11  .000000000000D+00
     .370000000000D+02 -.477500000000D+02  .456804742037D-08 -.332918316847D+00
    -.261701643467D-05  .670361309312D-02  .951252877712D-05  .515358191490D+04
     .129600000000D+06  .126659870148D-06  .205330565222D+01 -.130385160446D-07
     .958013090188D+00  .196593750000D+03 -.408576722632D-01 -.810640909305D-08
    -.363943731146D-09  .100000000000D+01  .160600000000D+04  .000000000000D+00
     .240000000000D+01  .000000000000D+00 -.149011611938D-07  .370000000000D+02
     .122406000000D+06  .400000000000D+01
20 10 10 18 12  0  0.0  .501722097397D-04 -.227373675443D-12  .000000000000D+00
     .270000000000D+02  .169375000000D+02  .523164649050D-08  .224207622411D+01
     .841915607452D-06  .428480305709D-02  .406429171562D-05  .515380666542D+04
     .129600000000D+06  .577419996262D-07 -.225017076051D+01 -.670552253723D-07
     .935518528879D+00  .286375000000D+03  .126729722376D+01 -.854999899892D-08
     .532165023952D-10  .100000000000D+01  .160600000000D+04  .000000000000D+00
     .240000000000D+01  .000000000000D+00 -.791624188423D-08  .270000000000D+02
     .122406000000D+06  .400000000000D+01
22 10 10 18 12  0  0.0  .160669907928D-03 -.102318153949D-11  .000000000000D+00
     .560000000000D+02  .117812500000D+02  .544594113102D-08  .964868278957D+00
     .588595867157D-06  .556768558454D-02  .385567545891D-05  .515371579170D+04
     .129600000000D+06 -.689178705215D-07 -.219159474088D+01 -.279396772385D-07
     .933175114055D+00  .290718750000D+03 -.192867981611D+01 -.874286417539D-08
    -.339299847486D-10  .100000000000D+01  .160600000000D+04  .000000000000D+00
     .340000000000D+01  .000000000000D+00 -.176951289177D-07  .560000000000D+02
     .122406000000D+06  .400000000000D+01
23 10 10 18 12  0  0.0  .348301604390D-03 -.193267624127D-11  .000000000000D+00
     .580000000000D+02 -.312187500000D+02  .432339437244D-08 -.781030194300D+00
    -.176951289177D-05  .699250062462D-02  .840239226818D-05  .515363189125D+04
     .129600000000D+06  .111758708954D-06 -.115878095524D+01 -.875443220139D-07
     .966478888857D+00  .217000000000D+03  .311998467623D+01 -.801819113270D-08
    -.165006873199D-09  .100000000000D+01  .160600000000D+04  .000000000000D+00
     .240000000000D+01  .000000000000D+00 -.200234353542D-07  .580000000000D+02
     .122406000000D+06  .400000000000D+01
24 10 10 18 12  0  0.0  .331113114953D-03  .318323145621D-11  .000000000000D+00
     .440000000000D+02  .512187500000D+02  .463626454760D-08 -.796233892280D+00
     .270269811153D-05  .574925681576D-02  .921636819839D-05  .515475889778D+04
     .129600000000D+06 -.614672899246D-07  .307231829942D+01 -.165775418282D-06
     .949279472180D+00  .198500000000D+03 -.352002693228D+00 -.810569477758D-08
     .202508435289D-09  .100000000000D+01  .160600000000D+04  .000000000000D+00
     .240000000000D+01  .000000000000D+00 -.139698386192D-08  .440000000000D+02
     .122406000000D+06  .400000000000D+01
25 10 10 18 12  0  0.0 -.463561154902D-04 -.204636307899D-11  .000000000000D+00
     .230000000000D+02 -.468750000000D+00  .495484924650D-08  .108086186996D+01
    -.409781932831D-07  .708546489477D-03  .395812094212D-05  .515375325966D+04
     .129600000000D+06 -.167638063431D-07  .910385217381D+00  .223517417908D-07
     .960990773626D+00  .301906250000D+03  .196438618370D+01 -.838213486385D-08
     .660741808263D-10  .100000000000D+01  .160600000000D+04  .100000000000D+01
     .240000000000D+01  .000000000000D+00  .465661287308D-08  .230000000000D+02
     .122406000000D+06  .400000000000D+01
26 10 10 18 12  0  0.0 -.321986153722D-04 -.761701812735D-11  .000000000000D+00
     .510000000000D+02 -.332500000000D+02  .386301805306D-08 -.105119398787D+01
    -.136531889439D-05  .198388651479D-01  .985525548458D-05  .515364213371D+04
     .129600000000D+06  .117346644402D-06 -.109849544708D+01  .422820448875D-06
     .989272771982D+00  .204250000000D+03  .111266587285D+01 -.788032824730D-08
    -.251439044874D-09  .100000000000D+01  .160600000000D+04  .000000000000D+00
     .240000000000D+01  .000000000000D+00 -.605359673500D-08  .510000000000D+02
     .122406000000D+06  .400000000000D+01
27 10 10 18 12  0  0.0  .199305359274D-03  .363797880709D-11  .000000000000D+00
     .250000000000D+02  .387812500000D+02  .419088885306D-08  .851531829947D-01
     .194273889065D-05  .216467286227D-01  .999309122562D-05  .515356696892D+04
     .129600000000D+06 -.268220901489D-06 -.171671204189D+00 -.210478901863D-06
     .979881946805D+00  .203718750000D+03 -.136010341985D+01 -.822927135361D-08
     .347157317639D-09  .100000000000D+01  .160600000000D+04  .000000000000D+00
     .240000000000D+01  .000000000000D+00 -.419095158577D-08  .250000000000D+02
     .122406000000D+06  .400000000000D+01
28 10 10 18 12  0  0.0  .831205397844D-06  .159161572810D-11  .000000000000D+00
     .220000000000D+02 -.141875000000D+02  .482877256633D-08  .111652092239D+01
    -.786036252975D-06  .162963235052D-01  .489689409733D-05  .515367913818D+04
     .129600000000D+06 -.350177288055D-06  .962761602314D+00  .633299350739D-07
     .971630600223D+00  .297125000000D+03 -.194375930796D+01 -.857071414750D-08
    -.625026034843D-10  .100000000000D+01  .160600000000D+04  .000000000000D+00
     .240000000000D+01  .000000000000D+00 -.107102096081D-07  .220000000000D+02
     .122406000000D+06  .400000000000D+01
